[
  {
    "OBJECT_NAME": "STARLINK-31475",
    "OBJECT_ID": "24056Q",
    "EPOCH": "2025-11-11T00:38:33.915552",
    "MEAN_MOTION": 15.27519735,
    "ECCENTRICITY": 4.7e-05,
    "INCLINATION": 43.0012,
    "RA_OF_ASC_NODE": 177.633,
    "ARG_OF_PERICENTER": 257.6979,
    "MEAN_ANOMALY": 102.382,
    "EPHEMERIS_TYPE": 0,
    "CLASSIFICATION_TYPE": "U",
    "NORAD_CAT_ID": 59310,
    "ELEMENT_SET_NO": 999,
    "REV_AT_EPOCH": 9316,
    "BSTAR": 0.00050918,
    "MEAN_MOTION_DOT": 0.0001375,
    "MEAN_MOTION_DDOT": 0.0,
    "TLE_LINE1": "1 59310U 24056Q   25315.02678143  .00013750  00000+0  50918-3 0  9993",
    "TLE_LINE2": "2 59310  43.0012 177.6330 0000470 257.6979 102.3820 15.27519735 93163",
    "COMMENT": "Grouped by shell and plane from TLE"
  },
  {
    "OBJECT_NAME": "STARLINK-31495",
    "OBJECT_ID": "24056T",
    "EPOCH": "2025-11-11T01:06:49.030848",
    "MEAN_MOTION": 15.27554995,
    "ECCENTRICITY": 0.0001262,
    "INCLINATION": 43.0021,
    "RA_OF_ASC_NODE": 173.4455,
    "ARG_OF_PERICENTER": 269.6751,
    "MEAN_ANOMALY": 90.3956,
    "EPHEMERIS_TYPE": 0,
    "CLASSIFICATION_TYPE": "U",
    "NORAD_CAT_ID": 59313,
    "ELEMENT_SET_NO": 999,
    "REV_AT_EPOCH": 9309,
    "BSTAR": 0.0,
    "MEAN_MOTION_DOT": -3.43e-05,
    "MEAN_MOTION_DDOT": 0.0,
    "TLE_LINE1": "1 59313U 24056T   25315.04640082 -.00003430  00000+0 -11526-3 0  9997",
    "TLE_LINE2": "2 59313  43.0021 173.4455 0001262 269.6751  90.3956 15.27554995 93094",
    "COMMENT": "Grouped by shell and plane from TLE"
  },
  {
    "OBJECT_NAME": "STARLINK-31477",
    "OBJECT_ID": "24056U",
    "EPOCH": "2025-11-11T06:59:20.784192",
    "MEAN_MOTION": 15.27580359,
    "ECCENTRICITY": 7.36e-05,
    "INCLINATION": 42.9996,
    "RA_OF_ASC_NODE": 171.845,
    "ARG_OF_PERICENTER": 285.4721,
    "MEAN_ANOMALY": 74.6049,
    "EPHEMERIS_TYPE": 0,
    "CLASSIFICATION_TYPE": "U",
    "NORAD_CAT_ID": 59314,
    "ELEMENT_SET_NO": 999,
    "REV_AT_EPOCH": 9313,
    "BSTAR": 6.9435e-05,
    "MEAN_MOTION_DOT": 1.649e-05,
    "MEAN_MOTION_DDOT": 0.0,
    "TLE_LINE1": "1 59314U 24056U   25315.29121278  .00001649  00000+0  69435-4 0  9997",
    "TLE_LINE2": "2 59314  42.9996 171.8450 0000736 285.4721  74.6049 15.27580359 93135",
    "COMMENT": "Grouped by shell and plane from TLE"
  },
  {
    "OBJECT_NAME": "STARLINK-32362",
    "OBJECT_ID": "24202A",
    "EPOCH": "2025-11-11T01:17:10.762656",
    "MEAN_MOTION": 15.2756041,
    "ECCENTRICITY": 4.8e-05,
    "INCLINATION": 42.9988,
    "RA_OF_ASC_NODE": 176.7507,
    "ARG_OF_PERICENTER": 268.0174,
    "MEAN_ANOMALY": 92.0623,
    "EPHEMERIS_TYPE": 0,
    "CLASSIFICATION_TYPE": "U",
    "NORAD_CAT_ID": 61845,
    "ELEMENT_SET_NO": 999,
    "REV_AT_EPOCH": 5790,
    "BSTAR": 0.0,
    "MEAN_MOTION_DOT": -2.021e-05,
    "MEAN_MOTION_DDOT": 0.0,
    "TLE_LINE1": "1 61845U 24202A   25315.05359679 -.00002021  00000+0 -63997-4 0  9998",
    "TLE_LINE2": "2 61845  42.9988 176.7507 0000480 268.0174  92.0623 15.27560410 57903",
    "COMMENT": "Grouped by shell and plane from TLE"
  },
  {
    "OBJECT_NAME": "STARLINK-32472",
    "OBJECT_ID": "24202B",
    "EPOCH": "2025-11-11T00:40:19.917120",
    "MEAN_MOTION": 15.27587979,
    "ECCENTRICITY": 8.83e-05,
    "INCLINATION": 43.0005,
    "RA_OF_ASC_NODE": 177.424,
    "ARG_OF_PERICENTER": 287.7395,
    "MEAN_ANOMALY": 72.336,
    "EPHEMERIS_TYPE": 0,
    "CLASSIFICATION_TYPE": "U",
    "NORAD_CAT_ID": 61846,
    "ELEMENT_SET_NO": 999,
    "REV_AT_EPOCH": 5730,
    "BSTAR": 0.0,
    "MEAN_MOTION_DOT": -1.497e-05,
    "MEAN_MOTION_DDOT": 0.0,
    "TLE_LINE1": "1 61846U 24202B   25315.02800830 -.00001497  00000+0 -44864-4 0  9994",
    "TLE_LINE2": "2 61846  43.0005 177.4240 0000883 287.7395  72.3360 15.27587979 57300",
    "COMMENT": "Grouped by shell and plane from TLE"
  },
  {
    "OBJECT_NAME": "STARLINK-32352",
    "OBJECT_ID": "24202C",
    "EPOCH": "2025-11-11T01:09:43.154496",
    "MEAN_MOTION": 15.27590773,
    "ECCENTRICITY": 9.16e-05,
    "INCLINATION": 42.9983,
    "RA_OF_ASC_NODE": 176.7083,
    "ARG_OF_PERICENTER": 260.7409,
    "MEAN_ANOMALY": 99.3339,
    "EPHEMERIS_TYPE": 0,
    "CLASSIFICATION_TYPE": "U",
    "NORAD_CAT_ID": 61847,
    "ELEMENT_SET_NO": 999,
    "REV_AT_EPOCH": 5732,
    "BSTAR": 5.4763e-05,
    "MEAN_MOTION_DOT": 1.246e-05,
    "MEAN_MOTION_DDOT": 0.0,
    "TLE_LINE1": "1 61847U 24202C   25315.04841614  .00001246  00000+0  54763-4 0  9991",
    "TLE_LINE2": "2 61847  42.9983 176.7083 0000916 260.7409  99.3339 15.27590773 57328",
    "COMMENT": "Grouped by shell and plane from TLE"
  },
  {
    "OBJECT_NAME": "STARLINK-32427",
    "OBJECT_ID": "24202D",
    "EPOCH": "2025-11-10T23:57:46.061856",
    "MEAN_MOTION": 15.27582065,
    "ECCENTRICITY": 0.0001478,
    "INCLINATION": 43.0021,
    "RA_OF_ASC_NODE": 177.1984,
    "ARG_OF_PERICENTER": 268.5864,
    "MEAN_ANOMALY": 91.4818,
    "EPHEMERIS_TYPE": 0,
    "CLASSIFICATION_TYPE": "U",
    "NORAD_CAT_ID": 61848,
    "ELEMENT_SET_NO": 999,
    "REV_AT_EPOCH": 5730,
    "BSTAR": 0.00010417,
    "MEAN_MOTION_DOT": 2.605e-05,
    "MEAN_MOTION_DDOT": 0.0,
    "TLE_LINE1": "1 61848U 24202D   25314.99844979  .00002605  00000+0  10417-3 0  9999",
    "TLE_LINE2": "2 61848  43.0021 177.1984 0001478 268.5864  91.4818 15.27582065 57302",
    "COMMENT": "Grouped by shell and plane from TLE"
  },
  {
    "OBJECT_NAME": "STARLINK-32346",
    "OBJECT_ID": "24202E",
    "EPOCH": "2025-11-11T00:03:19.359360",
    "MEAN_MOTION": 15.27601949,
    "ECCENTRICITY": 8.7e-05,
    "INCLINATION": 43.0007,
    "RA_OF_ASC_NODE": 177.2272,
    "ARG_OF_PERICENTER": 275.8283,
    "MEAN_ANOMALY": 84.2469,
    "EPHEMERIS_TYPE": 0,
    "CLASSIFICATION_TYPE": "U",
    "NORAD_CAT_ID": 61849,
    "ELEMENT_SET_NO": 999,
    "REV_AT_EPOCH": 5730,
    "BSTAR": 0.00015005,
    "MEAN_MOTION_DOT": 3.872e-05,
    "MEAN_MOTION_DDOT": 0.0,
    "TLE_LINE1": "1 61849U 24202E   25315.00230740  .00003872  00000+0  15005-3 0  9993",
    "TLE_LINE2": "2 61849  43.0007 177.2272 0000870 275.8283  84.2469 15.27601949 57304",
    "COMMENT": "Grouped by shell and plane from TLE"
  },
  {
    "OBJECT_NAME": "STARLINK-32379",
    "OBJECT_ID": "24202G",
    "EPOCH": "2025-11-11T01:04:10.473888",
    "MEAN_MOTION": 15.27591217,
    "ECCENTRICITY": 7.97e-05,
    "INCLINATION": 42.9998,
    "RA_OF_ASC_NODE": 176.6791,
    "ARG_OF_PERICENTER": 269.6096,
    "MEAN_ANOMALY": 90.4665,
    "EPHEMERIS_TYPE": 0,
    "CLASSIFICATION_TYPE": "U",
    "NORAD_CAT_ID": 61851,
    "ELEMENT_SET_NO": 999,
    "REV_AT_EPOCH": 5731,
    "BSTAR": 0.0,
    "MEAN_MOTION_DOT": -1.24e-05,
    "MEAN_MOTION_DDOT": 0.0,
    "TLE_LINE1": "1 61851U 24202G   25315.04456567 -.00001240  00000+0 -35521-4 0  9992",
    "TLE_LINE2": "2 61851  42.9998 176.6791 0000797 269.6096  90.4665 15.27591217 57318",
    "COMMENT": "Grouped by shell and plane from TLE"
  },
  {
    "OBJECT_NAME": "STARLINK-33549",
    "OBJECT_ID": "24237Y",
    "EPOCH": "2025-11-09T23:48:45.706752",
    "MEAN_MOTION": 15.27583504,
    "ECCENTRICITY": 0.0001754,
    "INCLINATION": 43.0012,
    "RA_OF_ASC_NODE": 172.5343,
    "ARG_OF_PERICENTER": 263.737,
    "MEAN_ANOMALY": 96.3282,
    "EPHEMERIS_TYPE": 0,
    "CLASSIFICATION_TYPE": "U",
    "NORAD_CAT_ID": 62289,
    "ELEMENT_SET_NO": 999,
    "REV_AT_EPOCH": 5288,
    "BSTAR": 0.00084998,
    "MEAN_MOTION_DOT": 0.00023204,
    "MEAN_MOTION_DDOT": 0.0,
    "TLE_LINE1": "1 62289U 24237Y   25313.99219568  .00023204  00000+0  84998-3 0  9999",
    "TLE_LINE2": "2 62289  43.0012 172.5343 0001754 263.7370  96.3282 15.27583504 52882",
    "COMMENT": "Grouped by shell and plane from TLE"
  },
  {
    "OBJECT_NAME": "STARLINK-32726",
    "OBJECT_ID": "24251Q",
    "EPOCH": "2025-11-10T02:55:20.570304",
    "MEAN_MOTION": 15.30184487,
    "ECCENTRICITY": 0.0001302,
    "INCLINATION": 53.1573,
    "RA_OF_ASC_NODE": 170.5672,
    "ARG_OF_PERICENTER": 77.7207,
    "MEAN_ANOMALY": 282.3939,
    "EPHEMERIS_TYPE": 0,
    "CLASSIFICATION_TYPE": "U",
    "NORAD_CAT_ID": 62446,
    "ELEMENT_SET_NO": 999,
    "REV_AT_EPOCH": 4933,
    "BSTAR": 0.0014437,
    "MEAN_MOTION_DOT": 0.00042624,
    "MEAN_MOTION_DDOT": 0.0,
    "TLE_LINE1": "1 62446U 24251Q   25314.12176586  .00042624  00000+0  14437-2 0  9995",
    "TLE_LINE2": "2 62446  53.1573 170.5672 0001302  77.7207 282.3939 15.30184487 49338",
    "COMMENT": "Grouped by shell and plane from TLE"
  },
  {
    "OBJECT_NAME": "STARLINK-32777",
    "OBJECT_ID": "25004Q",
    "EPOCH": "2025-11-11T00:10:18.383808",
    "MEAN_MOTION": 15.27632074,
    "ECCENTRICITY": 0.0001003,
    "INCLINATION": 42.9996,
    "RA_OF_ASC_NODE": 170.4739,
    "ARG_OF_PERICENTER": 284.5108,
    "MEAN_ANOMALY": 75.5632,
    "EPHEMERIS_TYPE": 0,
    "CLASSIFICATION_TYPE": "U",
    "NORAD_CAT_ID": 62525,
    "ELEMENT_SET_NO": 999,
    "REV_AT_EPOCH": 4830,
    "BSTAR": 0.0014882,
    "MEAN_MOTION_DOT": 0.00040983,
    "MEAN_MOTION_DDOT": 0.0,
    "TLE_LINE1": "1 62525U 25004Q   25315.00715722  .00040983  00000+0  14882-2 0  9999",
    "TLE_LINE2": "2 62525  42.9996 170.4739 0001003 284.5108  75.5632 15.27632074 48304",
    "COMMENT": "Grouped by shell and plane from TLE"
  },
  {
    "OBJECT_NAME": "STARLINK-32754",
    "OBJECT_ID": "25004S",
    "EPOCH": "2025-11-10T14:10:13.090656",
    "MEAN_MOTION": 15.2763062,
    "ECCENTRICITY": 0.0001905,
    "INCLINATION": 42.9919,
    "RA_OF_ASC_NODE": 172.5101,
    "ARG_OF_PERICENTER": 75.1959,
    "MEAN_ANOMALY": 284.9104,
    "EPHEMERIS_TYPE": 0,
    "CLASSIFICATION_TYPE": "U",
    "NORAD_CAT_ID": 62527,
    "ELEMENT_SET_NO": 999,
    "REV_AT_EPOCH": 4729,
    "BSTAR": 0.001098,
    "MEAN_MOTION_DOT": 0.00030124,
    "MEAN_MOTION_DDOT": 0.0,
    "TLE_LINE1": "1 62527U 25004S   25314.59042929  .00030124  00000+0  10980-2 0  9997",
    "TLE_LINE2": "2 62527  42.9919 172.5101 0001905  75.1959 284.9104 15.27630620 47298",
    "COMMENT": "Grouped by shell and plane from TLE"
  }
]